CCSDS_OEM_VERS = 1.0
CREATION_DATE  = 2017-05-11T11:00:19
ORIGINATOR     = GMAT USER

META_START
OBJECT_NAME          = MOPSSat_alt_35785_km_RAAN_0_061
OBJECT_ID            = SatId
CENTER_NAME          = Earth
REF_FRAME            = EME2000
TIME_SYSTEM          = UTC
START_TIME           = 2017-01-01T00:00:00.000
USEABLE_START_TIME   = 2017-01-01T00:00:00.000
USEABLE_STOP_TIME    = 2017-01-02T00:00:00.000
STOP_TIME            = 2017-01-02T00:00:00.000
INTERPOLATION        = Lagrange
INTERPOLATION_DEGREE = 7 
META_STOP


                                                                                   

2017-01-01T04:25:50.000   1.670854521331966e+04   3.870707825085967e+04   3.377297170151866e+02  -2.823085049757749e+00   1.218656032723995e+00   1.064119491613657e-02
2017-01-01T04:26:00.000   1.668030992087998e+04   3.871925451630369e+04   3.378360392567585e+02  -2.823973077705674e+00   1.216596900520110e+00   1.062325204343572e-02
2017-01-01T04:26:10.000   1.665206575596381e+04   3.873141018706335e+04   3.379421820403488e+02  -2.824859603514640e+00   1.214537121434731e+00   1.060530354311478e-02
2017-01-01T04:26:20.000   1.662381273356407e+04   3.874354525668943e+04   3.380481453098514e+02  -2.825744626714303e+00   1.212476696561424e+00   1.058734942468718e-02
2017-01-01T04:26:30.000   1.659555086869805e+04   3.875565971873473e+04   3.381539290091791e+02  -2.826628146834465e+00   1.210415626995533e+00   1.056938969768184e-02
2017-01-01T04:26:40.000   1.656728017632194e+04   3.876775356679170e+04   3.382595330825893e+02  -2.827510163407816e+00   1.208353913827940e+00   1.055142437158878e-02
2017-01-01T04:26:50.000   1.653900067136335e+04   3.877982679447660e+04   3.383649574745472e+02  -2.828390675968788e+00   1.206291558147449e+00   1.053345345587995e-02
2017-01-01T04:27:00.000   1.651071236873771e+04   3.879187939542390e+04   3.384702021296777e+02  -2.829269684053144e+00   1.204228561041975e+00   1.051547696001948e-02
2017-01-01T04:27:10.000   1.648241528338208e+04   3.880391136327204e+04   3.385752669926383e+02  -2.830147187196927e+00   1.202164923601009e+00   1.049749489348529e-02
2017-01-01T04:27:20.000   1.645410943027049e+04   3.881592269165526e+04   3.386801520080509e+02  -2.831023184935881e+00   1.200100646916736e+00   1.047950726577870e-02
2017-01-01T04:27:30.000   1.642579482444782e+04   3.882791337419104e+04   3.387848571203900e+02  -2.831897676804526e+00   1.198035732086514e+00   1.046151408644614e-02
2017-01-01T04:27:40.000   1.639747148094360e+04   3.883988340451590e+04   3.388893822742963e+02  -2.832770662338774e+00   1.195970180206575e+00   1.044351536502419e-02
2017-01-01T04:27:50.000   1.636913941514599e+04   3.885183277612973e+04   3.389937274132166e+02  -2.833642141064566e+00   1.193903992399310e+00   1.042551111127738e-02
2017-01-01T04:28:00.000   1.634079864234872e+04   3.886376148258487e+04   3.390978924810560e+02  -2.834512112511675e+00   1.191837169780220e+00   1.040750133491020e-02
2017-01-01T04:28:10.000   1.631244917791947e+04   3.887566951741566e+04   3.392018774215614e+02  -2.835380576208559e+00   1.189769713470201e+00   1.038948604567413e-02
2017-01-01T04:28:20.000   1.628409103664783e+04   3.888755687441244e+04   3.393056821807155e+02  -2.836247531702346e+00   1.187701624547990e+00   1.037146525295329e-02
2017-01-01T04:28:30.000   1.625572423339561e+04   3.889942354734802e+04   3.394093067043468e+02  -2.837112978538888e+00   1.185632904097591e+00   1.035343896617765e-02
2017-01-01T04:28:40.000   1.622734878294962e+04   3.891126953004007e+04   3.395127509386756e+02  -2.837976916267303e+00   1.183563553197538e+00   1.033540719472953e-02
2017-01-01T04:28:50.000   1.619896470038797e+04   3.892309481619479e+04   3.396160148289486e+02  -2.838839344428588e+00   1.181493572947608e+00   1.031736994817636e-02
2017-01-01T04:29:00.000   1.617057200080845e+04   3.893489939952374e+04   3.397190983204589e+02  -2.839700262564126e+00   1.179422964449015e+00   1.029932723609807e-02
2017-01-01T04:29:10.000   1.614217069932805e+04   3.894668327374278e+04   3.398220013585363e+02  -2.840559670215614e+00   1.177351728804373e+00   1.028127906808678e-02
2017-01-01T04:29:20.000   1.611376081135718e+04   3.895844643246147e+04   3.399247238875824e+02  -2.841417566916999e+00   1.175279867137692e+00   1.026322545392105e-02
2017-01-01T04:29:30.000   1.608534235223073e+04   3.897018886933304e+04   3.400272658523798e+02  -2.842273952205412e+00   1.173207380567477e+00   1.024516640333143e-02
2017-01-01T04:29:40.000   1.605691533735326e+04   3.898191057799502e+04   3.401296271975729e+02  -2.843128825616836e+00   1.171134270217315e+00   1.022710192609275e-02
2017-01-01T04:29:50.000   1.602847978155757e+04   3.899361155233382e+04   3.402318078699804e+02  -2.843982186705412e+00   1.169060537169092e+00   1.020903203161649e-02
2017-01-01T04:30:00.000   1.600003569974601e+04   3.900529178621996e+04   3.403338078162812e+02  -2.844834035024118e+00   1.166986182509769e+00   1.019095672935833e-02
2017-01-01T04:30:10.000   1.597158310674564e+04   3.901695127356829e+04   3.404356269835404e+02  -2.845684370129167e+00   1.164911207320816e+00   1.017287602872609e-02
2017-01-01T04:30:20.000   1.594312201767556e+04   3.902859000818413e+04   3.405372653178671e+02  -2.846533191568781e+00   1.162835612705002e+00   1.015478993931315e-02
2017-01-01T04:30:30.000   1.591465244767453e+04   3.904020798387832e+04   3.406387227654178e+02  -2.847380498891587e+00   1.160759399766525e+00   1.013669847072538e-02
2017-01-01T04:30:40.000   1.588617441190044e+04   3.905180519446605e+04   3.407399992723870e+02  -2.848226291646531e+00   1.158682569610983e+00   1.011860163258082e-02
2017-01-01T04:30:50.000   1.585768792580531e+04   3.906338163365818e+04   3.408410947840571e+02  -2.849070569374951e+00   1.156605123365423e+00   1.010049943468437e-02
2017-01-01T04:31:00.000   1.582919300476537e+04   3.907493729520877e+04   3.409420092460878e+02  -2.849913331621328e+00   1.154527062151363e+00   1.008239188679279e-02
2017-01-01T04:31:10.000   1.580068966422938e+04   3.908647217285544e+04   3.410427426039955e+02  -2.850754577928958e+00   1.152448387095613e+00   1.006427899870891e-02
2017-01-01T04:31:20.000   1.577217791906467e+04   3.909798626058426e+04   3.411432948054644e+02  -2.851594307859244e+00   1.150369099282579e+00   1.004616077986607e-02
2017-01-01T04:31:30.000   1.574365778421267e+04   3.910947955236402e+04   3.412436657980286e+02  -2.852432520972335e+00   1.148289199802073e+00   1.002803723974472e-02
2017-01-01T04:31:40.000   1.571512927451977e+04   3.912095204221502e+04   3.413438555296715e+02  -2.853269216832136e+00   1.146208689736973e+00   1.000990838776485e-02
2017-01-01T04:31:50.000   1.568659240519190e+04   3.913240372402366e+04   3.414438639472059e+02  -2.854104394992786e+00   1.144127570196379e+00   9.991774233574960e-03
2017-01-01T04:32:00.000   1.565804719141953e+04   3.914383459169568e+04   3.415436909976148e+02  -2.854938055009840e+00   1.142045842288264e+00   9.973634786813682e-03
2017-01-01T04:32:10.000   1.562949364846131e+04   3.915524463912207e+04   3.416433366277504e+02  -2.855770196437771e+00   1.139963507125572e+00   9.955490057162984e-03
2017-01-01T04:32:20.000   1.560093179162190e+04   3.916663386018968e+04   3.417428007844290e+02  -2.856600818830747e+00   1.137880565824604e+00   9.937340054334073e-03
2017-01-01T04:32:30.000   1.557236163622300e+04   3.917800224879117e+04   3.418420834145177e+02  -2.857429921743373e+00   1.135797019502902e+00   9.919184788048959e-03
2017-01-01T04:32:40.000   1.554378319759309e+04   3.918934979882949e+04   3.419411844649724e+02  -2.858257504730995e+00   1.133712869278504e+00   9.901024268033985e-03
2017-01-01T04:32:50.000   1.551519649096552e+04   3.920067650425909e+04   3.420401038831986e+02  -2.859083567352716e+00   1.131628116262510e+00   9.882858503954980e-03
2017-01-01T04:33:00.000   1.548660153154629e+04   3.921198235905787e+04   3.421388416168065e+02  -2.859908109169354e+00   1.129542761564023e+00   9.864687505460408e-03
2017-01-01T04:33:10.000   1.545799833451408e+04   3.922326735722762e+04   3.422373976136138e+02  -2.860731129743463e+00   1.127456806290158e+00   9.846511282181364e-03
2017-01-01T04:33:20.000   1.542938691495179e+04   3.923453149281987e+04   3.423357718218733e+02  -2.861552628641231e+00   1.125370251541043e+00   9.828329843688078e-03
2017-01-01T04:33:30.000   1.540076728794901e+04   3.924577475989630e+04   3.424339641899254e+02  -2.862372605429584e+00   1.123283098417292e+00   9.810143199555015e-03
2017-01-01T04:33:40.000   1.537213946861243e+04   3.925699715252482e+04   3.425319746661645e+02  -2.863191059675902e+00   1.121195348020770e+00   9.791951359367506e-03
2017-01-01T04:33:50.000   1.534350347209380e+04   3.926819866476703e+04   3.426298031989299e+02  -2.864007990947107e+00   1.119107001456623e+00   9.773754332739495e-03
2017-01-01T04:34:00.000   1.531485931361345e+04   3.927937929067094e+04   3.427274497364413e+02  -2.864823398809127e+00   1.117018059835004e+00   9.755552129328495e-03
2017-01-01T04:34:10.000   1.528620700837577e+04   3.929053902430309e+04   3.428249142270803e+02  -2.865637282829243e+00   1.114928524264900e+00   9.737344758781886e-03
2017-01-01T04:34:20.000   1.525754657194757e+04   3.930167785960368e+04   3.429221966181246e+02  -2.866449642565523e+00   1.112838395881729e+00   9.719132230977333e-03
2017-01-01T04:34:30.000   1.522887801979976e+04   3.931279579056263e+04   3.430192968572860e+02  -2.867260477579666e+00   1.110747675813916e+00   9.700914555731587e-03
2017-01-01T04:34:40.000   1.520020136747765e+04   3.932389281115402e+04   3.431162148921362e+02  -2.868069787432203e+00   1.108656365195311e+00   9.682691742908643e-03
2017-01-01T04:34:50.000   1.517151662994147e+04   3.933496891559133e+04   3.432129506723398e+02  -2.868877571701139e+00   1.106564465117097e+00   9.664463802000686e-03
